$$SOE
2460154.500000000, A.D. 2023-Jul-29 00:00:00.0000, -5.496554534004738E+08, -3.127902381269874E+07, 4.516232317885982E+07,
2460161.500000000, A.D. 2023-Aug-05 00:00:00.0000, -5.505346393442515E+08, -4.094124783821262E+07, 4.510720697359142E+07,
2460168.500000000, A.D. 2023-Aug-12 00:00:00.0000, -5.512566160425097E+08, -5.059179895190753E+07, 4.503920635154834E+07,
2460175.500000000, A.D. 2023-Aug-19 00:00:00.0000, -5.518224584597683E+08, -6.022803983696099E+07, 4.495844536515950E+07,
2460182.500000000, A.D. 2023-Aug-26 00:00:00.0000, -5.522332803238554E+08, -6.984738149166919E+07, 4.486505064846183E+07,
2460189.500000000, A.D. 2023-Sep-02 00:00:00.0000, -5.524902323404377E+08, -7.944728335643853E+07, 4.475915126666592E+07,
2460196.500000000, A.D. 2023-Sep-09 00:00:00.0000, -5.525945004297068E+08, -8.902525349352717E+07, 4.464087855812149E+07,
2460203.500000000, A.D. 2023-Sep-16 00:00:00.0000, -5.525473038180017E+08, -9.857884888047397E+07, 4.451036594861187E+07,
2460210.500000000, A.D. 2023-Sep-23 00:00:00.0000, -5.523498925689366E+08, -1.081056755332896E+08, 4.436774872333580E+07,
2460217.500000000, A.D. 2023-Sep-30 00:00:00.0000, -5.520035448942564E+08, -1.176033872715427E+08, 4.421316388514155E+07,
2460224.500000000, A.D. 2023-Oct-07 00:00:00.0000, -5.515095665987998E+08, -1.270696836712574E+08, 4.404675027066207E+07,
2460231.500000000, A.D. 2023-Oct-14 00:00:00.0000, -5.508692916209617E+08, -1.365023105219059E+08, 4.386864855842792E+07,
2460238.500000000, A.D. 2023-Oct-21 00:00:00.0000, -5.500840804411234E+08, -1.458990611871188E+08, 4.367900100408509E+07,
2460245.500000000, A.D. 2023-Oct-28 00:00:00.0000, -5.491553177822437E+08, -1.552577766111134E+08, 4.347795121828242E+07,
2460252.500000000, A.D. 2023-Nov-04 00:00:00.0000, -5.480844108522785E+08, -1.645763447439205E+08, 4.326564403909323E+07,
2460259.500000000, A.D. 2023-Nov-11 00:00:00.0000, -5.468727879510827E+08, -1.738526999881734E+08, 4.304222543387731E+07,
2460266.500000000, A.D. 2023-Nov-18 00:00:00.0000, -5.455218972227082E+08, -1.830848227343639E+08, 4.280784240544700E+07,
2460273.500000000, A.D. 2023-Nov-25 00:00:00.0000, -5.440332054804792E+08, -1.922707389643313E+08, 4.256264289792594E+07,
2460280.500000000, A.D. 2023-Dec-02 00:00:00.0000, -5.424081970766444E+08, -2.014085199364083E+08, 4.230677569895928E+07,
2460287.500000000, A.D. 2023-Dec-09 00:00:00.0000, -5.406483727386559E+08, -2.104962820133072E+08, 4.204039032640420E+07,
2460294.500000000, A.D. 2023-Dec-16 00:00:00.0000, -5.387552480843439E+08, -2.195321866222414E+08, 4.176363687415607E+07,
2460301.500000000, A.D. 2023-Dec-23 00:00:00.0000, -5.367303514672009E+08, -2.285144396616946E+08, 4.147666584123688E+07,
2460308.500000000, A.D. 2023-Dec-30 00:00:00.0000, -5.345752224913527E+08, -2.374412893072800E+08, 4.117962815262199E+07,
2460315.500000000, A.D. 2024-Jan-06 00:00:00.0000, -5.322914129680150E+08, -2.463110245792539E+08, 4.087267534117483E+07,
2460322.500000000, A.D. 2024-Jan-13 00:00:00.0000, -5.298804871404415E+08, -2.551219764803618E+08, 4.055595945173381E+07,
2460329.500000000, A.D. 2024-Jan-20 00:00:00.0000, -5.273440199530730E+08, -2.638725186205807E+08, 4.022963280689942E+07,
2460336.500000000, A.D. 2024-Jan-27 00:00:00.0000, -5.246835953920125E+08, -2.725610666777789E+08, 3.989384787350592E+07,
2460343.500000000, A.D. 2024-Feb-03 00:00:00.0000, -5.219008053237482E+08, -2.811860776448233E+08, 3.954875719114691E+07,
2460350.500000000, A.D. 2024-Feb-10 00:00:00.0000, -5.189972485540919E+08, -2.897460491565038E+08, 3.919451331322157E+07,
2460357.500000000, A.D. 2024-Feb-17 00:00:00.0000, -5.159745299685283E+08, -2.982395188903464E+08, 3.883126874823152E+07,
2460364.500000000, A.D. 2024-Feb-24 00:00:00.0000, -5.128342597180004E+08, -3.066650640280499E+08, 3.845917589909481E+07,
2460371.500000000, A.D. 2024-Mar-02 00:00:00.0000, -5.095780524205235E+08, -3.150213008112230E+08, 3.807838699499710E+07,
2460378.500000000, A.D. 2024-Mar-09 00:00:00.0000, -5.062075262392835E+08, -3.233068842552350E+08, 3.768905399777707E+07,
2460385.500000000, A.D. 2024-Mar-16 00:00:00.0000, -5.027243014411593E+08, -3.315205078247574E+08, 3.729132846257958E+07,
2460392.500000000, A.D. 2024-Mar-23 00:00:00.0000, -4.991299985382510E+08, -3.396609019626814E+08, 3.688536145277210E+07,
2460399.500000000, A.D. 2024-Mar-30 00:00:00.0000, -4.954262382523289E+08, -3.477268314999802E+08, 3.647130371234432E+07,
2460406.500000000, A.D. 2024-Apr-06 00:00:00.0000, -4.916146430451986E+08, -3.557170953152813E+08, 3.604930579696569E+07,
2460413.500000000, A.D. 2024-Apr-13 00:00:00.0000, -4.876968366634161E+08, -3.636305274087890E+08, 3.561951790629068E+07,
2460420.500000000, A.D. 2024-Apr-20 00:00:00.0000, -4.836744426487767E+08, -3.714659967143248E+08, 3.518208972354816E+07,
2460427.500000000, A.D. 2024-Apr-27 00:00:00.0000, -4.795490833303106E+08, -3.792224062111608E+08, 3.473717035559677E+07,
2460434.500000000, A.D. 2024-May-04 00:00:00.0000, -4.753223792085614E+08, -3.868986920395737E+08, 3.428490830782327E+07,
2460441.500000000, A.D. 2024-May-11 00:00:00.0000, -4.709959484927472E+08, -3.944938227225889E+08, 3.382545146369375E+07,
2460448.500000000, A.D. 2024-May-18 00:00:00.0000, -4.665714067079983E+08, -4.020067984728828E+08, 3.335894706327550E+07,
2460455.500000000, A.D. 2024-May-25 00:00:00.0000, -4.620503663472432E+08, -4.094366505924022E+08, 3.288554167801400E+07,
2460462.500000000, A.D. 2024-Jun-01 00:00:00.0000, -4.574344365072206E+08, -4.167824410224552E+08, 3.240538117175862E+07,
2460469.500000000, A.D. 2024-Jun-08 00:00:00.0000, -4.527252222616087E+08, -4.240432620674888E+08, 3.191861062376985E+07,
2460476.500000000, A.D. 2024-Jun-15 00:00:00.0000, -4.479243233711088E+08, -4.312182357476293E+08, 3.142537422182515E+07,
2460483.500000000, A.D. 2024-Jun-22 00:00:00.0000, -4.430333333349186E+08, -4.383065116048654E+08, 3.092581531386323E+07,
2460490.500000000, A.D. 2024-Jun-29 00:00:00.0000, -4.380538409042702E+08, -4.453072647838182E+08, 3.042007666412073E+07,
2460497.500000000, A.D. 2024-Jul-06 00:00:00.0000, -4.329874314123967E+08, -4.522196968587881E+08, 2.990830046935821E+07,
2460504.500000000, A.D. 2024-Jul-13 00:00:00.0000, -4.278356859714185E+08, -4.590430365834365E+08, 2.939062818732050E+07,
2460511.500000000, A.D. 2024-Jul-20 00:00:00.0000, -4.226001805212736E+08, -4.657765394143969E+08, 2.886720045349610E+07,
2460518.500000000, A.D. 2024-Jul-27 00:00:00.0000, -4.172824853858418E+08, -4.724194867682116E+08, 2.833815706786278E+07,
2460525.500000000, A.D. 2024-Aug-03 00:00:00.0000, -4.118841650624725E+08, -4.789711853866538E+08, 2.780363699578777E+07,
2460532.500000000, A.D. 2024-Aug-10 00:00:00.0000, -4.064067780784648E+08, -4.854309668150632E+08, 2.726377836729896E+07,
2460539.500000000, A.D. 2024-Aug-17 00:00:00.0000, -4.008518768666729E+08, -4.917981869720184E+08, 2.671871847192198E+07,
2460546.500000000, A.D. 2024-Aug-24 00:00:00.0000, -3.952210076319942E+08, -4.980722258324358E+08, 2.616859374443951E+07,
2460553.500000000, A.D. 2024-Aug-31 00:00:00.0000, -3.895157100926918E+08, -5.042524872852008E+08, 2.561353972565407E+07,
2460560.500000000, A.D. 2024-Sep-07 00:00:00.0000, -3.837375167305318E+08, -5.103383990384076E+08, 2.505369097465026E+07,
2460567.500000000, A.D. 2024-Sep-14 00:00:00.0000, -3.778879514637878E+08, -5.163294115756773E+08, 2.448918100582084E+07,
2460574.500000000, A.D. 2024-Sep-21 00:00:00.0000, -3.719685297709267E+08, -5.222249957503045E+08, 2.392014247014886E+07,
2460581.500000000, A.D. 2024-Sep-28 00:00:00.0000, -3.659807607512910E+08, -5.280246422447100E+08, 2.334670736140037E+07,
2460588.500000000, A.D. 2024-Oct-05 00:00:00.0000, -3.599261474523779E+08, -5.337278628940271E+08, 2.276900691057536E+07,
2460595.500000000, A.D. 2024-Oct-12 00:00:00.0000, -3.538061858241143E+08, -5.393341908941488E+08, 2.218717144514099E+07,
2460602.500000000, A.D. 2024-Oct-19 00:00:00.0000, -3.476223640508258E+08, -5.448431801650548E+08, 2.160133035145637E+07,
2460609.500000000, A.D. 2024-Oct-26 00:00:00.0000, -3.413761622929210E+08, -5.502544046706207E+08, 2.101161207781503E+07,
2460616.500000000, A.D. 2024-Nov-02 00:00:00.0000, -3.350690525804875E+08, -5.555674578430225E+08, 2.041814414234129E+07,
2460623.500000000, A.D. 2024-Nov-09 00:00:00.0000, -3.287024987616911E+08, -5.607819520907446E+08, 1.982105313855791E+07,
2460630.500000000, A.D. 2024-Nov-16 00:00:00.0000, -3.222779564795544E+08, -5.658975183896155E+08, 1.922046473628983E+07,
2460637.500000000, A.D. 2024-Nov-23 00:00:00.0000, -3.157968731296841E+08, -5.709138060064259E+08, 1.861650366955844E+07,
2460644.500000000, A.D. 2024-Nov-30 00:00:00.0000, -3.092606875901623E+08, -5.758304823974274E+08, 1.800929368893608E+07,
2460651.500000000, A.D. 2024-Dec-07 00:00:00.0000, -3.026708293037042E+08, -5.806472328607354E+08, 1.739895747434077E+07,
2460658.500000000, A.D. 2024-Dec-14 00:00:00.0000, -2.960287174002293E+08, -5.853637587182223E+08, 1.678561667155236E+07,
2460665.500000000, A.D. 2024-Dec-21 00:00:00.0000, -2.893357621777610E+08, -5.899797752671770E+08, 1.616939216380584E+07,
2460672.500000000, A.D. 2024-Dec-28 00:00:00.0000, -2.825933669685153E+08, -5.944950124689460E+08, 1.555040415516278E+07,
2460679.500000000, A.D. 2025-Jan-04 00:00:00.0000, -2.758029277926274E+08, -5.989092159986093E+08, 1.492877202181396E+07,
2460686.500000000, A.D. 2025-Jan-11 00:00:00.0000, -2.689658326205819E+08, -6.032221469958124E+08, 1.430461423424545E+07,
2460693.500000000, A.D. 2025-Jan-18 00:00:00.0000, -2.620834611609125E+08, -6.074335814352620E+08, 1.367804835952404E+07,
2460700.500000000, A.D. 2025-Jan-25 00:00:00.0000, -2.551571849291763E+08, -6.115433095911492E+08, 1.304919108281451E+07,
2460707.500000000, A.D. 2025-Feb-01 00:00:00.0000, -2.481883674081644E+08, -6.155511356254616E+08, 1.241815822851026E+07,
2460714.500000000, A.D. 2025-Feb-08 00:00:00.0000, -2.411783642404548E+08, -6.194568772804722E+08, 1.178506477743760E+07,
$$EOE